[
    {
        "Altitude(m)": 612513.9607048739,
        "Argument of Periapsis(deg)": 0.0,
        "Eccentricity": 0.0,
        "Inclination(deg)": 60.0,
        "Latitude(deg)": -28.13605739882278,
        "Longitude(deg)": -82.08688147647965,
        "Mean Anomaly(deg)": -147.2727,
        "RAAN(deg)": 180.0,
        "Satellite Name": "Test1 805",
        "Satellite Number": 805,
        "Semi-Major Axis(m)": 6980739.136638005,
        "Time(s)": 0
    },
    {
        "Altitude(m)": 612708.3290084582,
        "Argument of Periapsis(deg)": 0.00010418945913296404,
        "Eccentricity": 0.0,
        "Inclination(deg)": 60.0,
        "Latitude(deg)": -28.647796504641292,
        "Longitude(deg)": -81.72965070395209,
        "Mean Anomaly(deg)": -146.65259385453817,
        "RAAN(deg)": 179.99957995086024,
        "Satellite Name": "Test1 805",
        "Satellite Number": 805,
        "Semi-Major Axis(m)": 6980739.136638005,
        "Time(s)": 10
    }
]